[{"OBJECT_NAME":"STARLINK-35066","OBJECT_ID":"2025-191H","EPOCH":"2026-03-09T15:05:23.655264","MEAN_MOTION":15.05648067,"ECCENTRICITY":0.0002472,"INCLINATION":97.6021,"RA_OF_ASC_NODE":301.5195,"ARG_OF_PERICENTER":87.157,"MEAN_ANOMALY":272.994,"EPHEMERIS_TYPE":0,"CLASSIFICATION_TYPE":"U","NORAD_CAT_ID":65386,"ELEMENT_SET_NO":999,"REV_AT_EPOCH":3026,"BSTAR":0.00014046,"MEAN_MOTION_DOT":1.966e-5,"MEAN_MOTION_DDOT":0},{"OBJECT_NAME":"OBJECT A","OBJECT_ID":"2025-313A","EPOCH":"2026-03-09T21:22:42.572064","MEAN_MOTION":14.66981537,"ECCENTRICITY":0.02771301,"INCLINATION":97.5525,"RA_OF_ASC_NODE":140.9497,"ARG_OF_PERICENTER":295.9559,"MEAN_ANOMALY":61.3334,"EPHEMERIS_TYPE":0,"CLASSIFICATION_TYPE":"U","NORAD_CAT_ID":67248,"ELEMENT_SET_NO":999,"REV_AT_EPOCH":1046,"BSTAR":0.0001505143,"MEAN_MOTION_DOT":1.44e-5,"MEAN_MOTION_DDOT":0}]
